start=new Date('2021-09-17T00:00:00.000Z').valueOf();
sats=[{"SEMIMAJOR_AXIS":"6925.475","GP_ID":"184852539","COUNTRY_CODE":"US","MEAN_MOTION":"15.06358760","PERIOD":"95.595","OBJECT_ID":"2021-024W","MEAN_MOTION_DDOT":"0.0000000000000","MEAN_ELEMENT_THEORY":"SGP4","RCS_SIZE":"LARGE","TLE_LINE2":"2 47997  53.0554  90.0148 0001907  82.1093 320.1954 15.06358760  3572","LAUNCH_DATE":"2021-03-24","CLASSIFICATION_TYPE":"U","OBJECT_NAME":"STARLINK-2266","OBJECT_TYPE":"PAYLOAD","ARG_OF_PERICENTER":"82.1093","RA_OF_ASC_NODE":"90.0148","REF_FRAME":"TEME","SITE":"AFETR","APOAPSIS":"548.661","TLE_LINE1":"1 47997U 21024W   21260.00002315  .00039577  00000-0  26639-2 0  9996","MEAN_ANOMALY":"320.1954","PERIAPSIS":"546.019","FILE":"3117438","CENTER_NAME":"EARTH","BSTAR":"0.00266390000000","DECAY_DATE":null,"INCLINATION":"53.0554","EPHEMERIS_TYPE":"0","REV_AT_EPOCH":"357","MEAN_MOTION_DOT":"0.00039577","NORAD_CAT_ID":"47997","TIME_SYSTEM":"UTC","ECCENTRICITY":"0.00019070","EPOCH":"2021-09-17T00:00:02.000160","ELEMENT_SET_NO":"999"},{"COUNTRY_CODE":"US","MEAN_MOTION":"15.06390995","GP_ID":"184853284","SEMIMAJOR_AXIS":"6925.376","TLE_LINE1":"1 47998U 21024X   21260.00002315  .00007169  00000-0  49981-3 0  9995","REF_FRAME":"TEME","SITE":"AFETR","APOAPSIS":"548.126","RA_OF_ASC_NODE":"65.0495","OBJECT_NAME":"STARLINK-2296","OBJECT_TYPE":"PAYLOAD","ARG_OF_PERICENTER":"105.7811","CLASSIFICATION_TYPE":"U","TLE_LINE2":"2 47998  53.0458  65.0495 0001277 105.7811  19.0915 15.06390995  3570","LAUNCH_DATE":"2021-03-24","MEAN_ELEMENT_THEORY":"SGP4","RCS_SIZE":"LARGE","PERIOD":"95.593","MEAN_MOTION_DDOT":"0.0000000000000","OBJECT_ID":"2021-024X","TIME_SYSTEM":"UTC","NORAD_CAT_ID":"47998","MEAN_MOTION_DOT":"0.00007169","DECAY_DATE":null,"INCLINATION":"53.0458","EPHEMERIS_TYPE":"0","REV_AT_EPOCH":"357","BSTAR":"0.00049981000000","FILE":"3117438","CENTER_NAME":"EARTH","MEAN_ANOMALY":"19.0915","PERIAPSIS":"546.357","ELEMENT_SET_NO":"999","EPOCH":"2021-09-17T00:00:02.000160","ECCENTRICITY":"0.00012770"},{"COUNTRY_CODE":"US","MEAN_MOTION":"15.73252154","GP_ID":"184851538","SEMIMAJOR_AXIS":"6727.746","REF_FRAME":"TEME","SITE":"AFETR","APOAPSIS":"352.610","TLE_LINE1":"1 47999U 21024Y   21260.00002315 -.00060718  00000-0 -42996-3 0  9996","OBJECT_TYPE":"PAYLOAD","OBJECT_NAME":"STARLINK-2218","ARG_OF_PERICENTER":"357.9045","RA_OF_ASC_NODE":"46.6228","LAUNCH_DATE":"2021-03-24","TLE_LINE2":"2 47999  53.0452  46.6228 0004457 357.9045 176.7137 15.73252154  3774","CLASSIFICATION_TYPE":"U","PERIOD":"91.530","MEAN_MOTION_DDOT":"0.0000000000000","OBJECT_ID":"2021-024Y","RCS_SIZE":"LARGE","MEAN_ELEMENT_THEORY":"SGP4","NORAD_CAT_ID":"47999","TIME_SYSTEM":"UTC","EPHEMERIS_TYPE":"0","DECAY_DATE":null,"INCLINATION":"53.0452","REV_AT_EPOCH":"377","MEAN_MOTION_DOT":"-0.00060718","FILE":"3117438","CENTER_NAME":"EARTH","BSTAR":"-0.00042996000000","MEAN_ANOMALY":"176.7137","PERIAPSIS":"346.613","ELEMENT_SET_NO":"999","EPOCH":"2021-09-17T00:00:02.000160","ECCENTRICITY":"0.00044570"},{"ECCENTRICITY":"0.00045180","EPOCH":"2021-09-17T00:00:02.000160","ELEMENT_SET_NO":"999","REV_AT_EPOCH":"367","DECAY_DATE":null,"INCLINATION":"53.0460","EPHEMERIS_TYPE":"0","MEAN_MOTION_DOT":"-0.00081323","NORAD_CAT_ID":"48000","TIME_SYSTEM":"UTC","PERIAPSIS":"346.532","MEAN_ANOMALY":"167.7553","CENTER_NAME":"EARTH","FILE":"3117438","BSTAR":"-0.00057843000000","ARG_OF_PERICENTER":"7.4656","OBJECT_TYPE":"PAYLOAD","OBJECT_NAME":"STARLINK-2270","RA_OF_ASC_NODE":"46.6219","APOAPSIS":"352.612","REF_FRAME":"TEME","SITE":"AFETR","TLE_LINE1":"1 48000U 21024Z   21260.00002315 -.00081323  00000-0 -57843-3 0  9992","MEAN_MOTION_DDOT":"0.0000000000000","OBJECT_ID":"2021-024Z","PERIOD":"91.529","MEAN_ELEMENT_THEORY":"SGP4","RCS_SIZE":"LARGE","LAUNCH_DATE":"2021-03-24","TLE_LINE2":"2 48000  53.0460  46.6219 0004518   7.4656 167.7553 15.73265992  3675","CLASSIFICATION_TYPE":"U","GP_ID":"184852287","MEAN_MOTION":"15.73265992","COUNTRY_CODE":"US","SEMIMAJOR_AXIS":"6727.707"},{"ELEMENT_SET_NO":"999","ECCENTRICITY":"0.00045260","EPOCH":"2021-09-17T00:00:02.000160","TIME_SYSTEM":"UTC","NORAD_CAT_ID":"48001","MEAN_MOTION_DOT":"-0.00106511","EPHEMERIS_TYPE":"0","DECAY_DATE":null,"INCLINATION":"53.0459","REV_AT_EPOCH":"367","BSTAR":"-0.00076104000000","FILE":"3117438","CENTER_NAME":"EARTH","MEAN_ANOMALY":"172.4420","PERIAPSIS":"346.511","TLE_LINE1":"1 48001U 21024AA  21260.00002315 -.00106511  00000-0 -76104-3 0  9991","REF_FRAME":"TEME","SITE":"AFETR","APOAPSIS":"352.601","RA_OF_ASC_NODE":"46.6198","OBJECT_NAME":"STARLINK-2262","OBJECT_TYPE":"PAYLOAD","ARG_OF_PERICENTER":"3.4508","CLASSIFICATION_TYPE":"U","LAUNCH_DATE":"2021-03-24","TLE_LINE2":"2 48001  53.0459  46.6198 0004526   3.4508 172.4420 15.73271480  3676","MEAN_ELEMENT_THEORY":"SGP4","RCS_SIZE":"LARGE","PERIOD":"91.529","OBJECT_ID":"2021-024AA","MEAN_MOTION_DDOT":"0.0000000000000","COUNTRY_CODE":"US","MEAN_MOTION":"15.73271480","GP_ID":"184853039","SEMIMAJOR_AXIS":"6727.691"},{"ELEMENT_SET_NO":"999","ECCENTRICITY":"0.00007720","EPOCH":"2021-09-17T00:00:02.000160","BSTAR":"-0.00950880000000","CENTER_NAME":"EARTH","FILE":"3117438","PERIAPSIS":"363.368","MEAN_ANOMALY":"210.6079","TIME_SYSTEM":"UTC","NORAD_CAT_ID":"48002","MEAN_MOTION_DOT":"-0.00982026","REV_AT_EPOCH":"372","DECAY_DATE":null,"INCLINATION":"53.0434","EPHEMERIS_TYPE":"0","CLASSIFICATION_TYPE":"U","TLE_LINE2":"2 48002  53.0434  46.6667 0000772 304.2035 210.6079 15.68257530  3722","LAUNCH_DATE":"2021-03-24","MEAN_ELEMENT_THEORY":"SGP4","RCS_SIZE":"LARGE","MEAN_MOTION_DDOT":"0.0000000000000","OBJECT_ID":"2021-024AB","PERIOD":"91.822","TLE_LINE1":"1 48002U 21024AB  21260.00002315 -.00982026  00000-0 -95088-2 0  9996","APOAPSIS":"364.409","REF_FRAME":"TEME","SITE":"AFETR","RA_OF_ASC_NODE":"46.6667","OBJECT_NAME":"STARLINK-2265","OBJECT_TYPE":"PAYLOAD","ARG_OF_PERICENTER":"304.2035","SEMIMAJOR_AXIS":"6742.023","MEAN_MOTION":"15.68257530","COUNTRY_CODE":"US","GP_ID":"184852785"},{"MEAN_ANOMALY":"141.2346","PERIAPSIS":"545.928","FILE":"3117438","CENTER_NAME":"EARTH","BSTAR":"0.00219210000000","EPHEMERIS_TYPE":"0","DECAY_DATE":null,"INCLINATION":"53.0545","REV_AT_EPOCH":"357","MEAN_MOTION_DOT":"0.00032491","NORAD_CAT_ID":"48003","TIME_SYSTEM":"UTC","EPOCH":"2021-09-17T00:00:02.000160","ECCENTRICITY":"0.00020060","ELEMENT_SET_NO":"999","SEMIMAJOR_AXIS":"6925.452","GP_ID":"184852038","MEAN_MOTION":"15.06366243","COUNTRY_CODE":"US","PERIOD":"95.594","OBJECT_ID":"2021-024AC","MEAN_MOTION_DDOT":"0.0000000000000","RCS_SIZE":"LARGE","MEAN_ELEMENT_THEORY":"SGP4","TLE_LINE2":"2 48003  53.0545 115.0114 0002006  63.5405 141.2346 15.06366243  3575","LAUNCH_DATE":"2021-03-24","CLASSIFICATION_TYPE":"U","OBJECT_TYPE":"PAYLOAD","OBJECT_NAME":"STARLINK-2263","ARG_OF_PERICENTER":"63.5405","RA_OF_ASC_NODE":"115.0114","SITE":"AFETR","REF_FRAME":"TEME","APOAPSIS":"548.706","TLE_LINE1":"1 48003U 21024AC  21260.00002315  .00032491  00000-0  21921-2 0  9992"},{"MEAN_MOTION_DOT":"-0.00002770","EPHEMERIS_TYPE":"0","DECAY_DATE":null,"INCLINATION":"53.0459","REV_AT_EPOCH":"367","TIME_SYSTEM":"UTC","NORAD_CAT_ID":"48004","MEAN_ANOMALY":"309.9042","PERIAPSIS":"335.391","BSTAR":"-0.00001286600000","FILE":"3117438","CENTER_NAME":"EARTH","ECCENTRICITY":"0.00066020","EPOCH":"2021-09-17T00:00:02.000160","ELEMENT_SET_NO":"999","GP_ID":"184851788","MEAN_MOTION":"15.76690853","COUNTRY_CODE":"US","SEMIMAJOR_AXIS":"6717.961","RA_OF_ASC_NODE":"46.4973","OBJECT_NAME":"STARLINK-2261","OBJECT_TYPE":"PAYLOAD","ARG_OF_PERICENTER":"285.7371","TLE_LINE1":"1 48004U 21024AD  21260.00002315 -.00002770  00000-0 -12866-4 0  9992","SITE":"AFETR","REF_FRAME":"TEME","APOAPSIS":"344.261","MEAN_ELEMENT_THEORY":"SGP4","RCS_SIZE":"LARGE","PERIOD":"91.331","OBJECT_ID":"2021-024AD","MEAN_MOTION_DDOT":"0.0000000000000","CLASSIFICATION_TYPE":"U","TLE_LINE2":"2 48004  53.0459  46.4973 0006602 285.7371 309.9042 15.76690853  3677","LAUNCH_DATE":"2021-03-24"},{"CENTER_NAME":"EARTH","FILE":"3117438","BSTAR":"0.00223970000000","PERIAPSIS":"545.047","MEAN_ANOMALY":"313.3367","NORAD_CAT_ID":"48005","TIME_SYSTEM":"UTC","REV_AT_EPOCH":"361","INCLINATION":"53.0572","DECAY_DATE":null,"EPHEMERIS_TYPE":"0","MEAN_MOTION_DOT":"0.00033226","ELEMENT_SET_NO":"999","ECCENTRICITY":"0.00031920","EPOCH":"2021-09-17T00:00:02.000160","SEMIMAJOR_AXIS":"6925.392","COUNTRY_CODE":"US","MEAN_MOTION":"15.06385691","GP_ID":"184852540","LAUNCH_DATE":"2021-03-24","TLE_LINE2":"2 48005  53.0572  85.0079 0003192  16.4062 313.3367 15.06385691  3614","CLASSIFICATION_TYPE":"U","OBJECT_ID":"2021-024AE","MEAN_MOTION_DDOT":"0.0000000000000","PERIOD":"95.593","MEAN_ELEMENT_THEORY":"SGP4","RCS_SIZE":"LARGE","APOAPSIS":"549.468","SITE":"AFETR","REF_FRAME":"TEME","TLE_LINE1":"1 48005U 21024AE  21260.00002315  .00033226  00000-0  22397-2 0  9999","OBJECT_NAME":"STARLINK-2254","OBJECT_TYPE":"PAYLOAD","ARG_OF_PERICENTER":"16.4062","RA_OF_ASC_NODE":"85.0079"},{"RCS_SIZE":"LARGE","MEAN_ELEMENT_THEORY":"SGP4","MEAN_MOTION_DDOT":"0.0000000000000","OBJECT_ID":"2021-024AF","PERIOD":"91.329","CLASSIFICATION_TYPE":"U","TLE_LINE2":"2 48006  53.0459  46.4955 0005732 291.6324 304.6492 15.76711477  3729","LAUNCH_DATE":"2021-03-24","RA_OF_ASC_NODE":"46.4955","ARG_OF_PERICENTER":"291.6324","OBJECT_TYPE":"PAYLOAD","OBJECT_NAME":"STARLINK-2277","TLE_LINE1":"1 48006U 21024AF  21260.00002315  .00002024  00000-0  16408-4 0  9990","APOAPSIS":"343.618","SITE":"AFETR","REF_FRAME":"TEME","SEMIMAJOR_AXIS":"6717.902","GP_ID":"184853285","MEAN_MOTION":"15.76711477","COUNTRY_CODE":"US","ECCENTRICITY":"0.00057320","EPOCH":"2021-09-17T00:00:02.000160","ELEMENT_SET_NO":"999","PERIAPSIS":"335.917","MEAN_ANOMALY":"304.6492","BSTAR":"0.00001640800000","CENTER_NAME":"EARTH","FILE":"3117438","MEAN_MOTION_DOT":"0.00002024","REV_AT_EPOCH":"372","EPHEMERIS_TYPE":"0","DECAY_DATE":null,"INCLINATION":"53.0459","TIME_SYSTEM":"UTC","NORAD_CAT_ID":"48006"}];
